{"type": "FeatureCollection", "features": [ {"type": "Feature", "properties": {"norad_id": 66856, "name": "STARLINK-36072", "group": "last-30-days", "lat": -33.736379595379944, "lon": 50.412223455245254, "alt_km": 332.92678947482545, "timestamp": "2025-12-16T23:36:34.924774+00:00", "meta": {"OBJECT_NAME": "STARLINK-36072", "OBJECT_ID": "2025-281J", "EPOCH": "2025-12-16T06:00:02.999808", "MEAN_MOTION": 15.81827205, "ECCENTRICITY": 0.00016065, "INCLINATION": 43.0005, "RA_OF_ASC_NODE": 100.6831, "ARG_OF_PERICENTER": 273.4449, "MEAN_ANOMALY": 171.5899, "EPHEMERIS_TYPE": 0, "CLASSIFICATION_TYPE": "U", "NORAD_CAT_ID": 66856, "ELEMENT_SET_NO": 999, "REV_AT_EPOCH": 196, "BSTAR": -0.0071798052, "MEAN_MOTION_DOT": -0.013165, "MEAN_MOTION_DDOT": 0}, "tle": {"line1": "1 66856U 25281J   25350.25003472 -.01316500  00000+0 -71798-2 0  9998", "line2": "2 66856  43.0005 100.6831 0001606 273.4449 171.5899 15.81827205  1965"}}, "geometry": {"type": "Point", "coordinates": [50.412223455245254, -33.736379595379944]}}, {"type": "Feature", "properties": {"norad_id": 66857, "name": "STARLINK-36083", "group": "last-30-days", "lat": -32.62181403584352, "lon": 52.80376830344426, "alt_km": 333.16710618618254, "timestamp": "2025-12-16T23:36:34.924787+00:00", "meta": {"OBJECT_NAME": "STARLINK-36083", "OBJECT_ID": "2025-281K", "EPOCH": "2025-12-16T06:00:02.999808", "MEAN_MOTION": 15.81792758, "ECCENTRICITY": 0.00013738, "INCLINATION": 43.0002, "RA_OF_ASC_NODE": 100.6773, "ARG_OF_PERICENTER": 275.8371, "MEAN_ANOMALY": 171.6202, "EPHEMERIS_TYPE": 0, "CLASSIFICATION_TYPE": "U", "NORAD_CAT_ID": 66857, "ELEMENT_SET_NO": 999, "REV_AT_EPOCH": 196, "BSTAR": -0.0072763058, "MEAN_MOTION_DOT": -0.01329927, "MEAN_MOTION_DDOT": 0}, "tle": {"line1": "1 66857U 25281K   25350.25003472 -.01329927  00000+0 -72763-2 0  9999", "line2": "2 66857  43.0002 100.6773 0001373 275.8371 171.6202 15.81792758  1962"}}, "geometry": {"type": "Point", "coordinates": [52.80376830344426, -32.62181403584352]}}, {"type": "Feature", "properties": {"norad_id": 66858, "name": "STARLINK-35118", "group": "last-30-days", "lat": -31.43221185056318, "lon": 55.19527257084272, "alt_km": 333.20951520755807, "timestamp": "2025-12-16T23:36:34.924798+00:00", "meta": {"OBJECT_NAME": "STARLINK-35118", "OBJECT_ID": "2025-281L", "EPOCH": "2025-12-16T06:00:02.999808", "MEAN_MOTION": 15.81747283, "ECCENTRICITY": 0.00015526, "INCLINATION": 43.0005, "RA_OF_ASC_NODE": 100.6705, "ARG_OF_PERICENTER": 275.0428, "MEAN_ANOMALY": 174.9209, "EPHEMERIS_TYPE": 0, "CLASSIFICATION_TYPE": "U", "NORAD_CAT_ID": 66858, "ELEMENT_SET_NO": 999, "REV_AT_EPOCH": 175, "BSTAR": -0.0073705469, "MEAN_MOTION_DOT": -0.01368221, "MEAN_MOTION_DDOT": 0}, "tle": {"line1": "1 66858U 25281L   25350.25003472 -.01368221  00000+0 -73705-2 0  9997", "line2": "2 66858  43.0005 100.6705 0001552 275.0428 174.9209 15.81747283  1758"}}, "geometry": {"type": "Point", "coordinates": [55.19527257084272, -31.43221185056318]}}, {"type": "Feature", "properties": {"norad_id": 66859, "name": "STARLINK-35646", "group": "last-30-days", "lat": -30.124661022058728, "lon": 57.66138922785472, "alt_km": 333.3727122829987, "timestamp": "2025-12-16T23:36:34.924808+00:00", "meta": {"OBJECT_NAME": "STARLINK-35646", "OBJECT_ID": "2025-281M", "EPOCH": "2025-12-16T06:00:02.999808", "MEAN_MOTION": 15.81677654, "ECCENTRICITY": 0.00014886, "INCLINATION": 43.0004, "RA_OF_ASC_NODE": 100.6634, "ARG_OF_PERICENTER": 277.8959, "MEAN_ANOMALY": 174.7603, "EPHEMERIS_TYPE": 0, "CLASSIFICATION_TYPE": "U", "NORAD_CAT_ID": 66859, "ELEMENT_SET_NO": 999, "REV_AT_EPOCH": 196, "BSTAR": -0.0074210237, "MEAN_MOTION_DOT": -0.01372517, "MEAN_MOTION_DDOT": 0}, "tle": {"line1": "1 66859U 25281M   25350.25003472 -.01372517  00000+0 -74210-2 0  9993", "line2": "2 66859  43.0004 100.6634 0001488 277.8959 174.7603 15.81677654  1969"}}, "geometry": {"type": "Point", "coordinates": [57.66138922785472, -30.124661022058728]}}, {"type": "Feature", "properties": {"norad_id": 66860, "name": "STARLINK-35987", "group": "last-30-days", "lat": -22.947268966862964, "lon": 69.11950018025925, "alt_km": 334.51280761551425, "timestamp": "2025-12-16T23:36:34.924819+00:00", "meta": {"OBJECT_NAME": "STARLINK-35987", "OBJECT_ID": "2025-281N", "EPOCH": "2025-12-16T06:00:02.999808", "MEAN_MOTION": 15.81312638, "ECCENTRICITY": 0.00015739, "INCLINATION": 43.0003, "RA_OF_ASC_NODE": 100.6292, "ARG_OF_PERICENTER": 266.2762, "MEAN_ANOMALY": 199.9845, "EPHEMERIS_TYPE": 0, "CLASSIFICATION_TYPE": "U", "NORAD_CAT_ID": 66860, "ELEMENT_SET_NO": 999, "REV_AT_EPOCH": 196, "BSTAR": -0.0078433382, "MEAN_MOTION_DOT": -0.0142003, "MEAN_MOTION_DDOT": 0}, "tle": {"line1": "1 66860U 25281N   25350.25003472 -.01420030  00000+0 -78433-2 0  9990", "line2": "2 66860  43.0003 100.6292 0001573 266.2762 199.9845 15.81312638  1964"}}, "geometry": {"type": "Point", "coordinates": [69.11950018025925, -22.947268966862964]}}, {"type": "Feature", "properties": {"norad_id": 66861, "name": "STARLINK-35991", "group": "last-30-days", "lat": -27.366742529357232, "lon": 62.41950338333175, "alt_km": 333.93395241214785, "timestamp": "2025-12-16T23:36:34.924829+00:00", "meta": {"OBJECT_NAME": "STARLINK-35991", "OBJECT_ID": "2025-281P", "EPOCH": "2025-12-16T06:00:02.999808", "MEAN_MOTION": 15.81536406, "ECCENTRICITY": 0.0001381, "INCLINATION": 43.0005, "RA_OF_ASC_NODE": 100.6504, "ARG_OF_PERICENTER": 271.5281, "MEAN_ANOMALY": 186.564, "EPHEMERIS_TYPE": 0, "CLASSIFICATION_TYPE": "U", "NORAD_CAT_ID": 66861, "ELEMENT_SET_NO": 999, "REV_AT_EPOCH": 196, "BSTAR": -0.0076060863, "MEAN_MOTION_DOT": -0.01394629, "MEAN_MOTION_DDOT": 0}, "tle": {"line1": "1 66861U 25281P   25350.25003472 -.01394629  00000+0 -76061-2 0  9990", "line2": "2 66861  43.0005 100.6504 0001381 271.5281 186.5640 15.81536406  1961"}}, "geometry": {"type": "Point", "coordinates": [62.41950338333175, -27.366742529357232]}}, {"type": "Feature", "properties": {"norad_id": 66862, "name": "STARLINK-35974", "group": "last-30-days", "lat": -28.72171199906198, "lon": 60.14967956469157, "alt_km": 333.64202290442245, "timestamp": "2025-12-16T23:36:34.924839+00:00", "meta": {"OBJECT_NAME": "STARLINK-35974", "OBJECT_ID": "2025-281Q", "EPOCH": "2025-12-16T06:00:02.999808", "MEAN_MOTION": 15.81599391, "ECCENTRICITY": 0.00015942, "INCLINATION": 43.0005, "RA_OF_ASC_NODE": 100.6569, "ARG_OF_PERICENTER": 271.7232, "MEAN_ANOMALY": 183.7547, "EPHEMERIS_TYPE": 0, "CLASSIFICATION_TYPE": "U", "NORAD_CAT_ID": 66862, "ELEMENT_SET_NO": 999, "REV_AT_EPOCH": 186, "BSTAR": -0.0075270045, "MEAN_MOTION_DOT": -0.0138549, "MEAN_MOTION_DDOT": 0}, "tle": {"line1": "1 66862U 25281Q   25350.25003472 -.01385490  00000+0 -75270-2 0  9998", "line2": "2 66862  43.0005 100.6569 0001594 271.7232 183.7547 15.81599391  1863"}}, "geometry": {"type": "Point", "coordinates": [60.14967956469157, -28.72171199906198]}}, {"type": "Feature", "properties": {"norad_id": 66863, "name": "STARLINK-36134", "group": "last-30-days", "lat": -25.768391536912585, "lon": 64.9548719010088, "alt_km": 334.25628165738, "timestamp": "2025-12-16T23:36:34.924849+00:00", "meta": {"OBJECT_NAME": "STARLINK-36134", "OBJECT_ID": "2025-281R", "EPOCH": "2025-12-16T06:00:02.999808", "MEAN_MOTION": 15.8142323, "ECCENTRICITY": 0.00012622, "INCLINATION": 43.0009, "RA_OF_ASC_NODE": 100.6424, "ARG_OF_PERICENTER": 274.6863, "MEAN_ANOMALY": 186.5223, "EPHEMERIS_TYPE": 0, "CLASSIFICATION_TYPE": "U", "NORAD_CAT_ID": 66863, "ELEMENT_SET_NO": 999, "REV_AT_EPOCH": 196, "BSTAR": -0.0077356772, "MEAN_MOTION_DOT": -0.01408987, "MEAN_MOTION_DDOT": 0}, "tle": {"line1": "1 66863U 25281R   25350.25003472 -.01408987  00000+0 -77357-2 0  9994", "line2": "2 66863  43.0009 100.6424 0001262 274.6863 186.5223 15.81423230  1963"}}, "geometry": {"type": "Point", "coordinates": [64.9548719010088, -25.768391536912585]}}, {"type": "Feature", "properties": {"norad_id": 66864, "name": "STARLINK-36070", "group": "last-30-days", "lat": -24.39476572875219, "lon": 67.02736662096702, "alt_km": 334.35954393810334, "timestamp": "2025-12-16T23:36:34.924861+00:00", "meta": {"OBJECT_NAME": "STARLINK-36070", "OBJECT_ID": "2025-281S", "EPOCH": "2025-12-16T06:00:02.999808", "MEAN_MOTION": 15.81376754, "ECCENTRICITY": 0.00013614, "INCLINATION": 43.0009, "RA_OF_ASC_NODE": 100.6359, "ARG_OF_PERICENTER": 271.6771, "MEAN_ANOMALY": 192.0013, "EPHEMERIS_TYPE": 0, "CLASSIFICATION_TYPE": "U", "NORAD_CAT_ID": 66864, "ELEMENT_SET_NO": 999, "REV_AT_EPOCH": 199, "BSTAR": -0.0077967556, "MEAN_MOTION_DOT": -0.01416181, "MEAN_MOTION_DDOT": 0}, "tle": {"line1": "1 66864U 25281S   25350.25003472 -.01416181  00000+0 -77968-2 0  9998", "line2": "2 66864  43.0009 100.6359 0001361 271.6771 192.0013 15.81376754  1996"}}, "geometry": {"type": "Point", "coordinates": [67.02736662096702, -24.39476572875219]}}, {"type": "Feature", "properties": {"norad_id": 66865, "name": "STARLINK-36117", "group": "last-30-days", "lat": -21.449075585883936, "lon": 71.20084064040009, "alt_km": 334.6508878321192, "timestamp": "2025-12-16T23:36:34.924871+00:00", "meta": {"OBJECT_NAME": "STARLINK-36117", "OBJECT_ID": "2025-281T", "EPOCH": "2025-12-16T06:00:02.999808", "MEAN_MOTION": 15.81247435, "ECCENTRICITY": 0.00012952, "INCLINATION": 43.0006, "RA_OF_ASC_NODE": 100.6231, "ARG_OF_PERICENTER": 273.6247, "MEAN_ANOMALY": 195.294, "EPHEMERIS_TYPE": 0, "CLASSIFICATION_TYPE": "U", "NORAD_CAT_ID": 66865, "ELEMENT_SET_NO": 999, "REV_AT_EPOCH": 196, "BSTAR": -0.007960403, "MEAN_MOTION_DOT": -0.01434736, "MEAN_MOTION_DDOT": 0}, "tle": {"line1": "1 66865U 25281T   25350.25003472 -.01434736  00000+0 -79604-2 0  9994", "line2": "2 66865  43.0006 100.6231 0001295 273.6247 195.2940 15.81247435  1963"}}, "geometry": {"type": "Point", "coordinates": [71.20084064040009, -21.449075585883936]}}]}